{
    "links": {
        "self": "http://www.neowsapp.com/rest/v1/neo/3387614?api_key=iIulBulltgU6a56xZRHN4H3l9WmuAYTsLGpBGhQ2"
    },
    "id": "3387614",
    "neo_reference_id": "3387614",
    "name": "(2007 TL15)",
    "designation": "2007 TL15",
    "nasa_jpl_url": "http://ssd.jpl.nasa.gov/sbdb.cgi?sstr=3387614",
    "absolute_magnitude_h": 24.3,
    "estimated_diameter": {
        "kilometers": {
            "estimated_diameter_min": 0.0366906138,
            "estimated_diameter_max": 0.0820427065
        },
        "meters": {
            "estimated_diameter_min": 36.6906137531,
            "estimated_diameter_max": 82.0427064882
        },
        "miles": {
            "estimated_diameter_min": 0.0227984834,
            "estimated_diameter_max": 0.0509789586
        },
        "feet": {
            "estimated_diameter_min": 120.3760332259,
            "estimated_diameter_max": 269.1689931548
        }
    },
    "is_potentially_hazardous_asteroid": false,
    "close_approach_data": [
        {
            "close_approach_date": "2007-08-26",
            "close_approach_date_full": "2007-Aug-26 01:54",
            "epoch_date_close_approach": 1188093240000,
            "relative_velocity": {
                "kilometers_per_second": "20.8629483045",
                "kilometers_per_hour": "75106.6138961572",
                "miles_per_hour": "46668.3290623094"
            },
            "miss_distance": {
                "astronomical": "0.1421558879",
                "lunar": "55.2986403931",
                "kilometers": "21266218.037798773",
                "miles": "13214215.1373901474"
            },
            "orbiting_body": "Venus"
        },
        {
            "close_approach_date": "2007-09-23",
            "close_approach_date_full": "2007-Sep-23 06:53",
            "epoch_date_close_approach": 1190530380000,
            "relative_velocity": {
                "kilometers_per_second": "14.9801125566",
                "kilometers_per_hour": "53928.4052037431",
                "miles_per_hour": "33509.013777848"
            },
            "miss_distance": {
                "astronomical": "0.065734985",
                "lunar": "25.570909165",
                "kilometers": "9833813.74048195",
                "miles": "6110448.51307291"
            },
            "orbiting_body": "Earth"
        }
    ],
    "orbital_data": {
        "orbit_id": "9",
        "orbit_determination_date": "2017-04-06 09:05:49",
        "first_observation_date": "2007-10-08",
        "last_observation_date": "2007-10-17",
        "data_arc_in_days": 9,
        "observations_used": 20,
        "orbit_uncertainty": "9",
        "minimum_orbit_intersection": ".0102449",
        "jupiter_tisserand_invariant": "4.620",
        "epoch_osculation": "2454383.5",
        "eccentricity": ".5441800447799102",
        "semi_major_axis": "1.38586557057979",
        "inclination": "1.319091247377876",
        "ascending_node_longitude": "29.80556433378749",
        "orbital_period": "595.909193018939",
        "perihelion_distance": ".6317051823227442",
        "perihelion_argument": "240.7630332061715",
        "aphelion_distance": "2.140025958836837",
        "perihelion_time": "2454312.759065256641",
        "mean_anomaly": "42.73593494772594",
        "mean_motion": ".6041188896184029",
        "equinox": "J2000",
        "orbit_class": {
            "orbit_class_type": "APO",
            "orbit_class_description": "Near-Earth asteroid orbits which cross the Earth’s orbit similar to that of 1862 Apollo",
            "orbit_class_range": "a (semi-major axis) > 1.0 AU; q (perihelion) < 1.017 AU"
        }
    },
    "is_sentry_object": false
}